QZS-1R                  
1 49336U 21096A   23350.62934670 -.00000235  00000+0  00000+0 0  9992
2 49336  35.5691  93.3375 0754473 271.1226  80.9960  1.00256596  7853
